SL-3 R/B                
1 16111U 85090B   20103.44341661  .00007896  00000-0  86309-4 0  9997
2 16111  97.4765 272.5241 0012258 153.2118 206.9776 15.63536822904711
SL-16 R/B               
1 16182U 85097B   20104.05675994  .00000140  00000-0  94814-4 0  9994
2 16182  71.0051 359.0976 0009452 295.4791 160.8920 14.16248910782177
SL-14 R/B               
1 16496U 86006B   20104.09875802  .00000042  00000-0  21773-5 0  9993
2 16496  82.5223 123.3620 0017660 266.6848 151.7164 14.84136466850255
COSMOS 1743             
1 16719U 86034A   20103.65953375  .00000845  00000-0  42751-4 0  9994
2 16719  82.5526  62.0440 0010942 320.4645 212.4269 15.15644592851462
SL-14 R/B               
1 16792U 86046B   20103.62741681  .00000057  00000-0  39343-5 0  9999
2 16792  82.4806 312.7311 0025232 137.3864 278.6836 14.83239052806538
SL-14 R/B               
1 16882U 86055B   20103.75861052  .00000074  00000-0  61471-5 0  9994
2 16882  82.5230 348.7096 0018402 248.8554 175.4979 14.83222286799550
AJISAI (EGS)            
1 16908U 86061A   20103.71608479 -.00000102  00000-0 -32202-4 0  9991
2 16908  50.0088 245.8196 0011409 196.1492 185.9499 12.44491677199558
COSMOS 1812             
1 17295U 87003A   20103.73028556  .00000302  00000-0  14303-4 0  9994
2 17295  82.5168 210.2870 0004300 140.9667 219.1877 15.15492057814766
SL-14 R/B               
1 17567U 87024B   20103.67320135  .00000061  00000-0  44790-5 0  9996
2 17567  82.5269 314.4785 0019071 181.9456 178.1688 14.83758643768182
COSMOS 1833             
1 17589U 87027A   20103.66616270  .00000225  00000-0  14618-3 0  9996
2 17589  70.9198 179.3091 0018783 194.6991 165.3586 14.12902440705623
SL-16 R/B               
1 17590U 87027B   20103.53319911 -.00000249  00000-0 -10036-3 0  9994
2 17590  71.0013 140.2320 0005318 198.6290 161.4640 14.16783683709825
SL-14 R/B               
1 17912U 87038B   20103.54417889  .00000068  00000-0  53423-5 0  9994
2 17912  82.5029 163.5571 0021775  78.5234 281.8424 14.83034623759359
COSMOS 1844             
1 17973U 87041A   20103.71836286 -.00000387  00000-0 -17727-3 0  9991
2 17973  70.8963 261.6092 0030208  15.1737 345.0283 14.14097033698623
SL-14 R/B               
1 18153U 87055B   20103.82106906  .00000067  00000-0  52918-5 0  9994
2 18153  82.5028 216.7936 0020099 289.5184  70.3860 14.83283042771134
COSMOS 1867             
1 18187U 87060A   20103.56121196 -.00000066  00000-0  12783-4 0  9991
2 18187  65.0107 225.1425 0013957 264.4054  95.5439 14.31110990711213
COSMOS 1892             
1 18421U 87088A   20103.71260515  .00000513  00000-0  24204-4 0  9995
2 18421  82.5008 338.6136 0013658 297.8138  62.1710 15.17094555774582
SL-14 R/B               
1 18749U 88001B   20103.38423919  .00000082  00000-0  70711-5 0  9992
2 18749  82.5148  59.5553 0019426 151.7775 324.1282 14.83214375722074
COSMOS 1933             
1 18958U 88020A   20103.71591904  .00000673  00000-0  46990-4 0  9999
2 18958  82.5324 189.0712 0012034  23.3816 336.7954 15.03705868725204
SL-3 R/B                
1 19046U 88032B   20103.73843490  .00000442  00000-0  36958-4 0  9990
2 19046  97.4107 127.6968 0038490  71.4575 289.0827 15.02700670727091
SL-16 R/B               
1 19120U 88039B   20103.70754838 -.00000183  00000-0 -64109-4 0  9997
2 19120  71.0142 307.4472 0020293  43.9665 316.3070 14.19210022652326
COSMOS 1953             
1 19210U 88050A   20103.99902920 -.00000124  00000-0 -10557-4 0  9991
2 19210  82.5138 113.3696 0012453 349.7870  10.3102 15.05943754732949
SL-8 R/B                
1 19257U 88053B   20103.54389059  .00000111  00000-0  45625-4 0  9996
2 19257  74.0468 122.1754 0019282 119.5546 358.8127 14.37463737666816
COSMOS 1975             
1 19573U 88093A   20103.26185994  .00000413  00000-0  27088-4 0  9990
2 19573  82.5201  68.2892 0014980  33.8555 326.3625 15.04852411714696
SL-14 R/B               
1 19574U 88093B   20103.51943925  .00000064  00000-0  48443-5 0  9996
2 19574  82.5302 261.6868 0020623 322.7380  98.1602 14.83324734681092
SL-16 R/B               
1 19650U 88102B   20103.49475419  .00000164  00000-0  10772-3 0  9990
2 19650  71.0022   8.6052 0012540  49.2766 310.9444 14.15787101621821
INTERCOSMOS 24          
1 20261U 89080A   20103.62312163  .00000103  00000-0  29544-4 0  9998
2 20261  82.6036  62.8710 1202089 239.6864 108.0012 12.56101870395732
SL-14 R/B               
1 20262U 89080C   20103.73159636  .00000042  00000-0  31919-5 0  9997
2 20262  82.5887 116.0415 1238098  67.0137 305.6626 12.48937874390783
DELTA 2 R/B(1)          
1 20303U 89085B   20103.30718254  .00002064  00000-0  68122-4 0  9999
2 20303  35.6267  66.0089 0096257 307.6871  51.5158 15.27117230657944
DELTA 1 R/B             
1 20323U 89089B   20104.07186595  .00000032  00000-0  17242-4 0  9997
2 20323  97.0802 260.3848 0073269  77.2148 283.7224 14.48340727603934
ARIANE 40 R/B           
1 20443U 90005H   20103.76300381 -.00000001  00000-0  14358-4 0  9998
2 20443  98.5823 165.6735 0010675 172.6387 187.4958 14.38084658582673
DELTA 2 R/B(1)          
1 20453U 90008B   20103.68701303  .00001606  00000-0  92689-4 0  9996
2 20453  35.6236 284.0990 0280279 115.9999 246.9862 14.85414739601419
COSMOS 2058             
1 20465U 90010A   20104.12117587  .00000274  00000-0  20845-4 0  9992
2 20465  82.4896 336.2203 0016876  63.7950 296.5005 14.97990053639656
SL-14 R/B               
1 20466U 90010B   20103.61932021  .00000056  00000-0  41430-5 0  9996
2 20466  82.5006 128.3946 0020210 189.4799 170.6036 14.81380627608980
SL-14 R/B               
1 20511U 90018B   20103.70033211  .00000065  00000-0  55911-5 0  9997
2 20511  82.5221  74.3909 0016868 338.6077 194.3623 14.80036660603388
HST                     
1 20580U 90037B   20104.23955170  .00000473  00000-0  17801-4 0  9998
2 20580  28.4705  30.9882 0002924 109.2387  26.9240 15.09368532446199
SL-16 R/B               
1 20625U 90046B   20103.53310193 -.00000179  00000-0 -68239-4 0  9996
2 20625  70.9969 146.5669 0015083 333.6670  26.3684 14.14649690543295
COSMOS 2084             
1 20663U 90055A   20103.70823103 -.00000030  00000-0  15102-4 0  9993
2 20663  62.7965  27.6946 0032736 233.3492 126.4591 14.92072671613541
SL-6 R/B(2)             
1 20666U 90055D   20103.57080536 -.00000034  00000-0  14710-4 0  9994
2 20666  62.7859 304.7373 0035245 324.1985  35.6746 14.92324415615465
SL-8 R/B                
1 20775U 90078B   20103.59719785  .00001533  00000-0  72262-4 0  9997
2 20775  82.9235 280.9305 0575111  38.8464 325.2626 14.34210739496304
SL-8 R/B                
1 21088U 91006B   20103.55944022 -.00000001  00000-0 -16066-4 0  9998
2 21088  82.9424 334.2218 0021739 318.4217 102.2592 13.77144026467149
OKEAN-3                 
1 21397U 91039A   20103.76362759  .00000238  00000-0  20379-4 0  9993
2 21397  82.5223 239.1196 0018562  33.9887 326.2518 14.92908900563527
COSMOS 2151             
1 21422U 91042A   20104.14198835  .00000119  00000-0  91386-5 0  9996
2 21422  82.5018 345.1342 0015746  91.0475 269.2549 14.92120936562229
SL-14 R/B               
1 21423U 91042B   20103.66974185  .00000061  00000-0  49304-5 0  9992
2 21423  82.4925  78.3851 0019037 112.8128 247.5098 14.79787031533934
ERS-1                   
1 21574U 91050A   20103.44240050  .00000067  00000-0  36744-4 0  9990
2 21574  98.5911  56.8038 0033879 122.4231 238.0240 14.37737531505638
ARIANE 40 R/B           
1 21610U 91050F   20103.72524458  .00000009  00000-0  16356-4 0  9992
2 21610  98.4699 173.5986 0004468  97.6579  12.4005 14.40899296508514
INTERCOSMOS 25          
1 21819U 91086A   20103.66837524 -.00000286  00000-0 -65696-4 0  9996
2 21819  82.6043 165.7067 1515186  52.2576 320.6344 12.05176042236362
SL-8 R/B                
1 21876U 92008B   20103.41732616  .00000087  00000-0  74116-4 0  9997
2 21876  82.9258  71.5014 0035781  40.0023  69.2844 13.75654044412796
SL-8 R/B                
1 21938U 92020B   20103.69434786  .00000001  00000-0 -15121-4 0  9995
2 21938  82.9278 315.3953 0028827 194.7275 231.6531 13.75275159404635
COSMOS 2219             
1 22219U 92076A   20103.62192429 -.00000089  00000-0 -22018-4 0  9997
2 22219  71.0594 205.2314 0020361 255.6822 104.2040 14.13633599413512
SL-16 R/B               
1 22220U 92076B   20103.27939654  .00000233  00000-0  14085-3 0  9992
2 22220  71.0014  50.8812 0011736 152.3040  10.6987 14.16452617416638
COSMOS 2221             
1 22236U 92080A   20103.65402290  .00000150  00000-0  13612-4 0  9991
2 22236  82.5091 165.8317 0016878 174.6731 185.4670 14.87910629480530
SL-16 R/B               
1 22285U 92093B   20103.62944699  .00000115  00000-0  84114-4 0  9996
2 22285  71.0217 210.6067 0004729 330.4957  29.5898 14.15038681408026
COSMOS 2228             
1 22286U 92094A   20103.54856659  .00000152  00000-0  13825-4 0  9999
2 22286  82.5173 122.0904 0019727 302.5637  57.3675 14.88128273475719
SL-16 R/B               
1 22566U 93016B   20103.36939602 -.00000056  00000-0 -44421-5 0  9997
2 22566  71.0056  64.4672 0010179 353.7435   6.3558 14.14958846396981
COSMOS 2242             
1 22626U 93024A   20103.72164767  .00000161  00000-0  14830-4 0  9990
2 22626  82.5212 150.0250 0017467 302.0377  57.9143 14.87982563459088
SL-16 R/B               
1 22803U 93059B   20103.74265783 -.00000089  00000-0 -20358-4 0  9990
2 22803  70.9904 237.7411 0019520 257.6952 102.1986 14.16819465373997
ARIANE 40 R/B           
1 22830U 93061H   20103.73793760 -.00000036  00000-0  34216-5 0  9993
2 22830  98.7731 152.2931 0011596 150.0225 210.1623 14.31447486385678
COSMOS 2278             
1 23087U 94023A   20103.73161755 -.00000206  00000-0 -84049-4 0  9998
2 23087  71.0572   5.0266 0006334  77.3055 282.8775 14.13807215340150
SL-16 R/B               
1 23088U 94023B   20103.64306246 -.00000109  00000-0 -31998-4 0  9992
2 23088  70.9979 279.2513 0004794 308.5762  51.4930 14.14685633341009
